TIANQI-37               
1 67476U 26010A   26025.56746783  .00000264  00000+0  20672-3 0  9991
2 67476  44.9835 359.1385 0010484 353.3819   6.6880 14.14272169  1385
TIANQI-38               
1 67477U 26010B   26025.42516550  .00000266  00000+0  20717-3 0  9996
2 67477  44.9799 359.7750 0010995 355.3612   4.7123 14.14422583  1361
TIANQI-39               
1 67478U 26010C   26025.63636446  .00000265  00000+0  20610-3 0  9998
2 67478  44.9845 358.8062 0010904   0.4809 359.6039 14.14524856  1393
TIANQI-40               
1 67479U 26010D   26025.63627474  .00000261  00000+0  20424-3 0  9999
2 67479  44.9851 358.8061 0011661 356.7006   3.3755 14.14537200  1392
TRANSPORTER-15DT        
1 67483U 25276DT  26025.63360366  .00002369  00000+0  20718-3 0  9998
2 67483  97.5430 101.2421 0010139 247.4239 112.5911 14.97642002  1279
STARLINK-36551          
1 67493U 26012A   26019.01773773 -.00002725  86142-5  00000+0 0  9995
2 67493  43.0100 248.3700 0007700 319.9700  13.3500 16.05267929    16
STARLINK-36396          
1 67494U 26012B   26019.01773773 -.00002725  86142-5  00000+0 0  9996
2 67494  43.0100 248.3700 0007700 319.9700  13.3500 16.05267929    17
STARLINK-36550          
1 67495U 26012C   26019.01773773 -.00002725  86142-5  00000+0 0  9997
2 67495  43.0100 248.3700 0007700 319.9700  13.3500 16.05267929    18
STARLINK-36534          
1 67496U 26012D   26019.01773773 -.00002725  86142-5  00000+0 0  9998
2 67496  43.0100 248.3700 0007700 319.9700  13.3500 16.05267929    19
STARLINK-36555          
1 67497U 26012E   26019.01773773 -.00002725  86142-5  00000+0 0  9999
2 67497  43.0100 248.3700 0007700 319.9700  13.3500 16.05267929    10
STARLINK-36081          
1 67498U 26012F   26019.01773773 -.00002725  86142-5  00000+0 0  9990
2 67498  43.0100 248.3700 0007700 319.9700  13.3500 16.05267929    11
STARLINK-36558          
1 67499U 26012G   26019.01773773 -.00002725  86142-5  00000+0 0  9991
2 67499  43.0100 248.3700 0007700 319.9700  13.3500 16.05267929    12
